[{"OBJECT_NAME":"JILIN-1 06","OBJECT_ID":"2017-074C","EPOCH":"2026-03-09T22:46:57.173376","MEAN_MOTION":15.32444387,"ECCENTRICITY":0.00061285,"INCLINATION":97.4715,"RA_OF_ASC_NODE":171.0354,"ARG_OF_PERICENTER":223.0031,"MEAN_ANOMALY":137.0732,"EPHEMERIS_TYPE":0,"CLASSIFICATION_TYPE":"U","NORAD_CAT_ID":43024,"ELEMENT_SET_NO":999,"REV_AT_EPOCH":45863,"BSTAR":0.00028431628,"MEAN_MOTION_DOT":8.833e-5,"MEAN_MOTION_DDOT":0},{"OBJECT_NAME":"STARLINK-30296","OBJECT_ID":"2023-124J","EPOCH":"2026-03-09T14:54:27.694368","MEAN_MOTION":15.3018753,"ECCENTRICITY":0.0001161,"INCLINATION":53.1616,"RA_OF_ASC_NODE":207.3307,"ARG_OF_PERICENTER":99.8849,"MEAN_ANOMALY":260.2283,"EPHEMERIS_TYPE":0,"CLASSIFICATION_TYPE":"U","NORAD_CAT_ID":57671,"ELEMENT_SET_NO":999,"REV_AT_EPOCH":14355,"BSTAR":-1.0046e-5,"MEAN_MOTION_DOT":-6.56e-6,"MEAN_MOTION_DDOT":0}]
